0 DOVE 2
1 39132U 13015C   13281.91949992  .00001728  00000-0  15355-3 0  2572
2 39132 064.8751 212.3105 0004773 002.5099 357.6016 14.99466630 25879
0 DOVE 2
1 39132U 13015C   13282.91992344  .00001819  00000-0  16095-3 0  2586
2 39132 064.8751 209.1738 0004762 002.2813 357.8370 14.99471040 26028
0 DOVE 2
1 39132U 13015C   13283.78695848  .00002227  00000-0  18051-3 0  2590
2 39132 064.8766 206.4465 0005315 359.5374 000.6236 14.99477180 26155
0 DOVE 2
1 39132U 13015C   13284.18711606  .00002377  00000-0  20619-3 0  2595
2 39132 064.8738 205.1982 0004932 003.4222 356.6996 14.99480363 26216
0 DOVE 2
1 39132U 13015C   13286.85486618  .00002922  00000-0  25026-3 0  2619
2 39132 064.8729 196.8300 0005536 359.7365 000.3739 14.99499687 26613
0 DOVE 2
1 39132U 13015C   13288.18873369  .00002834  00000-0  24302-3 0  2629
2 39132 064.8731 192.6481 0005873 358.4678 001.6416 14.99507266 26818
0 DOVE 2
1 39132U 13015C   13289.18912692  .00003019  00000-0  25799-3 0  2631
2 39132 064.8727 189.5102 0006011 357.6303 002.4796 14.99514732 26961
0 DOVE 2
1 39132U 13015C   13290.18951694  .00003037  00000-0  25937-3 0  2643
2 39132 064.8727 186.3732 0006098 357.9097 002.1994 14.99521207 27113
0 DOVE 2
1 39132U 13015C   13290.72306605  .00003039  00000-0  24599-3 0  2655
2 39132 064.8774 184.6921 0006254 355.5473 004.6083 14.99523844 27195
0 DOVE 2
1 39132U 13015C   13291.18990316  .00002994  00000-0  25585-3 0  2659
2 39132 064.8729 183.2363 0006145 357.5522 002.5564 14.99527308 27264
0 DOVE 2
1 39132U 13015C   13292.19028425  .00003080  00000-0  26281-3 0  2666
2 39132 064.8728 180.0978 0006741 356.7871 003.3174 14.99534407 27411
0 DOVE 2
1 39132U 13015C   13293.85757868  .00002976  00000-0  25427-3 0  2675
2 39132 064.8729 174.8673 0007111 357.6263 002.4817 14.99544631 27663
0 DOVE 2
1 39132U 13015C   13294.85794848  .00002955  00000-0  25256-3 0  2683
2 39132 064.8729 171.7297 0007059 356.6833 003.4233 14.99550835 27817
0 DOVE 2
1 39132U 13015C   13295.85831634  .00002744  00000-0  23543-3 0  2693
2 39132 064.8730 168.5902 0007086 356.2530 003.8531 14.99555554 27960
